[{"OBJECT_NAME":"ONEWEB-0107","OBJECT_ID":"2021-025G","EPOCH":"2025-12-16T01:11:47.136768","MEAN_MOTION":13.1347157,"ECCENTRICITY":0.00015048,"INCLINATION":87.8986,"RA_OF_ASC_NODE":356.6002,"ARG_OF_PERICENTER":89.1142,"MEAN_ANOMALY":271.0159,"EPHEMERIS_TYPE":0,"CLASSIFICATION_TYPE":"U","NORAD_CAT_ID":48048,"ELEMENT_SET_NO":999,"REV_AT_EPOCH":22948,"BSTAR":-0.00074902605,"MEAN_MOTION_DOT":-2.61e-6,"MEAN_MOTION_DDOT":0},{"OBJECT_NAME":"ONEWEB-0101","OBJECT_ID":"2021-025H","EPOCH":"2025-12-16T02:07:50.596320","MEAN_MOTION":13.13472289,"ECCENTRICITY":0.0001677,"INCLINATION":87.8976,"RA_OF_ASC_NODE":356.625,"ARG_OF_PERICENTER":85.6834,"MEAN_ANOMALY":274.4487,"EPHEMERIS_TYPE":0,"CLASSIFICATION_TYPE":"U","NORAD_CAT_ID":48049,"ELEMENT_SET_NO":999,"REV_AT_EPOCH":22946,"BSTAR":0.00092312796,"MEAN_MOTION_DOT":3.5e-6,"MEAN_MOTION_DDOT":0},{"OBJECT_NAME":"ONEWEB-0113","OBJECT_ID":"2021-025J","EPOCH":"2025-12-16T00:39:48.108960","MEAN_MOTION":13.13984855,"ECCENTRICITY":0.00019046,"INCLINATION":87.8984,"RA_OF_ASC_NODE":356.5657,"ARG_OF_PERICENTER":96.4065,"MEAN_ANOMALY":263.7281,"EPHEMERIS_TYPE":0,"CLASSIFICATION_TYPE":"U","NORAD_CAT_ID":48050,"ELEMENT_SET_NO":999,"REV_AT_EPOCH":22955,"BSTAR":0.00038467098,"MEAN_MOTION_DOT":1.54e-6,"MEAN_MOTION_DDOT":0},{"OBJECT_NAME":"ONEWEB-0112","OBJECT_ID":"2021-025K","EPOCH":"2025-12-16T01:19:05.333376","MEAN_MOTION":13.13471532,"ECCENTRICITY":0.00017197,"INCLINATION":87.899,"RA_OF_ASC_NODE":356.5963,"ARG_OF_PERICENTER":93.0077,"MEAN_ANOMALY":267.1249,"EPHEMERIS_TYPE":0,"CLASSIFICATION_TYPE":"U","NORAD_CAT_ID":48051,"ELEMENT_SET_NO":999,"REV_AT_EPOCH":22955,"BSTAR":-0.00083232586,"MEAN_MOTION_DOT":-2.91e-6,"MEAN_MOTION_DDOT":0},{"OBJECT_NAME":"ONEWEB-0156","OBJECT_ID":"2021-025L","EPOCH":"2025-12-16T07:00:21.923424","MEAN_MOTION":13.13471543,"ECCENTRICITY":0.00016201,"INCLINATION":87.8986,"RA_OF_ASC_NODE":356.5603,"ARG_OF_PERICENTER":92.267,"MEAN_ANOMALY":267.8644,"EPHEMERIS_TYPE":0,"CLASSIFICATION_TYPE":"U","NORAD_CAT_ID":48052,"ELEMENT_SET_NO":999,"REV_AT_EPOCH":22956,"BSTAR":-0.000523796,"MEAN_MOTION_DOT":-1.79e-6,"MEAN_MOTION_DDOT":0},{"OBJECT_NAME":"ONEWEB-0161","OBJECT_ID":"2021-025M","EPOCH":"2025-12-16T06:23:48.776928","MEAN_MOTION":13.13470454,"ECCENTRICITY":0.00015732,"INCLINATION":87.8978,"RA_OF_ASC_NODE":356.5805,"ARG_OF_PERICENTER":91.3071,"MEAN_ANOMALY":268.8239,"EPHEMERIS_TYPE":0,"CLASSIFICATION_TYPE":"U","NORAD_CAT_ID":48053,"ELEMENT_SET_NO":999,"REV_AT_EPOCH":22949,"BSTAR":-0.00011544482,"MEAN_MOTION_DOT":-2.9e-7,"MEAN_MOTION_DDOT":0},{"OBJECT_NAME":"ONEWEB-0158","OBJECT_ID":"2021-025N","EPOCH":"2025-12-16T07:15:00.186336","MEAN_MOTION":13.13471566,"ECCENTRICITY":0.00020681,"INCLINATION":87.8986,"RA_OF_ASC_NODE":356.558,"ARG_OF_PERICENTER":86.6552,"MEAN_ANOMALY":273.4814,"EPHEMERIS_TYPE":0,"CLASSIFICATION_TYPE":"U","NORAD_CAT_ID":48054,"ELEMENT_SET_NO":999,"REV_AT_EPOCH":22962,"BSTAR":0.00010931581,"MEAN_MOTION_DOT":5.3e-7,"MEAN_MOTION_DDOT":0},{"OBJECT_NAME":"ONEWEB-0157","OBJECT_ID":"2021-025P","EPOCH":"2025-12-16T06:01:52.802112","MEAN_MOTION":13.13470131,"ECCENTRICITY":0.00013538,"INCLINATION":87.8984,"RA_OF_ASC_NODE":356.5743,"ARG_OF_PERICENTER":86.1766,"MEAN_ANOMALY":273.9518,"EPHEMERIS_TYPE":0,"CLASSIFICATION_TYPE":"U","NORAD_CAT_ID":48055,"ELEMENT_SET_NO":999,"REV_AT_EPOCH":22955,"BSTAR":0.00065536398,"MEAN_MOTION_DOT":2.52e-6,"MEAN_MOTION_DDOT":0},{"OBJECT_NAME":"ONEWEB-0162","OBJECT_ID":"2021-025Q","EPOCH":"2025-12-16T07:17:13.453152","MEAN_MOTION":13.13470184,"ECCENTRICITY":0.00016935,"INCLINATION":87.8987,"RA_OF_ASC_NODE":356.5661,"ARG_OF_PERICENTER":95.8655,"MEAN_ANOMALY":264.2667,"EPHEMERIS_TYPE":0,"CLASSIFICATION_TYPE":"U","NORAD_CAT_ID":48056,"ELEMENT_SET_NO":999,"REV_AT_EPOCH":22953,"BSTAR":-0.00063384507,"MEAN_MOTION_DOT":-2.19e-6,"MEAN_MOTION_DDOT":0},{"OBJECT_NAME":"ONEWEB-0155","OBJECT_ID":"2021-025R","EPOCH":"2025-12-16T07:27:11.469888","MEAN_MOTION":13.13469283,"ECCENTRICITY":0.00016485,"INCLINATION":87.8983,"RA_OF_ASC_NODE":356.5693,"ARG_OF_PERICENTER":84.7279,"MEAN_ANOMALY":275.4038,"EPHEMERIS_TYPE":0,"CLASSIFICATION_TYPE":"U","NORAD_CAT_ID":48057,"ELEMENT_SET_NO":999,"REV_AT_EPOCH":22967,"BSTAR":0.0006375837,"MEAN_MOTION_DOT":2.46e-6,"MEAN_MOTION_DDOT":0},{"OBJECT_NAME":"ONEWEB-0149","OBJECT_ID":"2021-025S","EPOCH":"2025-12-15T11:51:46.408032","MEAN_MOTION":13.13773094,"ECCENTRICITY":0.0002067,"INCLINATION":87.8982,"RA_OF_ASC_NODE":356.7249,"ARG_OF_PERICENTER":193.9279,"MEAN_ANOMALY":166.1793,"EPHEMERIS_TYPE":0,"CLASSIFICATION_TYPE":"U","NORAD_CAT_ID":48058,"ELEMENT_SET_NO":999,"REV_AT_EPOCH":22937,"BSTAR":0.1105476,"MEAN_MOTION_DOT":0.00040742,"MEAN_MOTION_DDOT":0},{"OBJECT_NAME":"ONEWEB-0148","OBJECT_ID":"2021-025T","EPOCH":"2025-12-16T01:36:09.565632","MEAN_MOTION":13.13472005,"ECCENTRICITY":0.00015074,"INCLINATION":87.8977,"RA_OF_ASC_NODE":356.631,"ARG_OF_PERICENTER":110.7626,"MEAN_ANOMALY":249.3664,"EPHEMERIS_TYPE":0,"CLASSIFICATION_TYPE":"U","NORAD_CAT_ID":48059,"ELEMENT_SET_NO":999,"REV_AT_EPOCH":22957,"BSTAR":-0.00010512868,"MEAN_MOTION_DOT":-2.6e-7,"MEAN_MOTION_DDOT":0},{"OBJECT_NAME":"ONEWEB-0160","OBJECT_ID":"2021-025U","EPOCH":"2025-12-16T07:29:37.782240","MEAN_MOTION":13.13471735,"ECCENTRICITY":0.00025746,"INCLINATION":87.8976,"RA_OF_ASC_NODE":356.5794,"ARG_OF_PERICENTER":91.3736,"MEAN_ANOMALY":268.7688,"EPHEMERIS_TYPE":0,"CLASSIFICATION_TYPE":"U","NORAD_CAT_ID":48060,"ELEMENT_SET_NO":999,"REV_AT_EPOCH":22955,"BSTAR":0.00081397426,"MEAN_MOTION_DOT":3.1e-6,"MEAN_MOTION_DDOT":0},{"OBJECT_NAME":"ONEWEB-0163","OBJECT_ID":"2021-025V","EPOCH":"2025-12-16T07:07:41.618208","MEAN_MOTION":13.13469643,"ECCENTRICITY":0.00015089,"INCLINATION":87.8984,"RA_OF_ASC_NODE":356.569,"ARG_OF_PERICENTER":86.6823,"MEAN_ANOMALY":273.4479,"EPHEMERIS_TYPE":0,"CLASSIFICATION_TYPE":"U","NORAD_CAT_ID":48061,"ELEMENT_SET_NO":999,"REV_AT_EPOCH":22967,"BSTAR":-0.00015429062,"MEAN_MOTION_DOT":-4.4e-7,"MEAN_MOTION_DDOT":0},{"OBJECT_NAME":"ONEWEB-0159","OBJECT_ID":"2021-025W","EPOCH":"2025-12-16T06:55:29.594208","MEAN_MOTION":13.13471888,"ECCENTRICITY":0.00015245,"INCLINATION":87.8986,"RA_OF_ASC_NODE":356.5545,"ARG_OF_PERICENTER":92.899,"MEAN_ANOMALY":267.2313,"EPHEMERIS_TYPE":0,"CLASSIFICATION_TYPE":"U","NORAD_CAT_ID":48062,"ELEMENT_SET_NO":999,"REV_AT_EPOCH":22959,"BSTAR":-0.00071865481,"MEAN_MOTION_DOT":-2.5e-6,"MEAN_MOTION_DDOT":0},{"OBJECT_NAME":"ONEWEB-0164","OBJECT_ID":"2021-025X","EPOCH":"2025-12-16T06:28:40.772640","MEAN_MOTION":13.13468663,"ECCENTRICITY":0.00018452,"INCLINATION":87.8983,"RA_OF_ASC_NODE":356.5651,"ARG_OF_PERICENTER":89.4395,"MEAN_ANOMALY":270.6946,"EPHEMERIS_TYPE":0,"CLASSIFICATION_TYPE":"U","NORAD_CAT_ID":48063,"ELEMENT_SET_NO":999,"REV_AT_EPOCH":22957,"BSTAR":-0.00089429249,"MEAN_MOTION_DOT":-3.14e-6,"MEAN_MOTION_DDOT":0}]
