ONEWEB-0107             
1 48048U 21025G   25350.04985112 -.00000261  00000+0 -74903-3 0  9995
2 48048  87.8986 356.6002 0001504  89.1142 271.0159 13.13471570229481
ONEWEB-0101             
1 48049U 21025H   25350.08878005  .00000350  00000+0  92313-3 0  9994
2 48049  87.8976 356.6250 0001677  85.6834 274.4487 13.13472289229463
ONEWEB-0113             
1 48050U 21025J   25350.02764015  .00000154  00000+0  38467-3 0  9997
2 48050  87.8984 356.5657 0001904  96.4065 263.7281 13.13984855229553
ONEWEB-0112             
1 48051U 21025K   25350.05492284 -.00000291  00000+0 -83233-3 0  9992
2 48051  87.8990 356.5963 0001719  93.0077 267.1249 13.13471532229556
ONEWEB-0156             
1 48052U 21025L   25350.29192041 -.00000179  00000+0 -52380-3 0  9991
2 48052  87.8986 356.5603 0001620  92.2670 267.8644 13.13471543229563
ONEWEB-0161             
1 48053U 21025M   25350.26653677 -.00000029  00000+0 -11544-3 0  9997
2 48053  87.8978 356.5805 0001573  91.3071 268.8239 13.13470454229494
ONEWEB-0158             
1 48054U 21025N   25350.30208549  .00000053  00000+0  10932-3 0  9992
2 48054  87.8986 356.5580 0002068  86.6552 273.4814 13.13471566229626
ONEWEB-0157             
1 48055U 21025P   25350.25130558  .00000252  00000+0  65536-3 0  9992
2 48055  87.8984 356.5743 0001353  86.1766 273.9518 13.13470131229559
ONEWEB-0162             
1 48056U 21025Q   25350.30362793 -.00000219  00000+0 -63385-3 0  9992
2 48056  87.8987 356.5661 0001693  95.8655 264.2667 13.13470184229537
ONEWEB-0155             
1 48057U 21025R   25350.31054942  .00000246  00000+0  63758-3 0  9990
2 48057  87.8983 356.5693 0001648  84.7279 275.4038 13.13469283229677
ONEWEB-0149             
1 48058U 21025S   25349.49428713  .00040742  00000+0  11055+0 0  9993
2 48058  87.8982 356.7249 0002067 193.9279 166.1793 13.13773094229374
ONEWEB-0148             
1 48059U 21025T   25350.06677738 -.00000026  00000+0 -10513-3 0  9997
2 48059  87.8977 356.6310 0001507 110.7626 249.3664 13.13472005229579
ONEWEB-0160             
1 48060U 21025U   25350.31224285  .00000310  00000+0  81397-3 0  9994
2 48060  87.8976 356.5794 0002574  91.3736 268.7688 13.13471735229554
ONEWEB-0163             
1 48061U 21025V   25350.29700947 -.00000044  00000+0 -15429-3 0  9995
2 48061  87.8984 356.5690 0001508  86.6823 273.4479 13.13469643229678
ONEWEB-0159             
1 48062U 21025W   25350.28853697 -.00000250  00000+0 -71865-3 0  9991
2 48062  87.8986 356.5545 0001524  92.8990 267.2313 13.13471888229595
ONEWEB-0164             
1 48063U 21025X   25350.26991635 -.00000314  00000+0 -89429-3 0  9991
2 48063  87.8983 356.5651 0001845  89.4395 270.6946 13.13468663229573
